CCSDS_OMM_VERS = 2.0
CREATION_DATE  = 
ORIGINATOR     = 

OBJECT_NAME    = UNKNOWN
OBJECT_ID      = 
CENTER_NAME    = EARTH
REF_FRAME      = TEME
TIME_SYSTEM    = UTC
MEAN_ELEMENT_THEORY = SGP/SGP4

EPOCH          = 2025-11-08T20:56:21.728544
MEAN_MOTION    = 13.01489365
ECCENTRICITY   = .00329605
INCLINATION    = 90.2382
RA_OF_ASC_NODE = 359.1197
ARG_OF_PERICENTER = 220.9918
MEAN_ANOMALY   = 138.8727

EPHEMERIS_TYPE = 0
CLASSIFICATION_TYPE = U
NORAD_CAT_ID   = 270326
ELEMENT_SET_NO = 999
REV_AT_EPOCH   = 26013
BSTAR          = .22382431E-2
MEAN_MOTION_DOT = .697E-5
MEAN_MOTION_DDOT = 0

CCSDS_OMM_VERS = 2.0
CREATION_DATE  = 
ORIGINATOR     = 

OBJECT_NAME    = UNKNOWN
OBJECT_ID      = 
CENTER_NAME    = EARTH
REF_FRAME      = TEME
TIME_SYSTEM    = UTC
MEAN_ELEMENT_THEORY = SGP/SGP4

EPOCH          = 2025-11-17T10:18:46.633824
MEAN_MOTION    = 12.95807008
ECCENTRICITY   = .00270922
INCLINATION    = 90.2917
RA_OF_ASC_NODE = 28.7193
ARG_OF_PERICENTER = 314.2540
MEAN_ANOMALY   = 45.6356

EPHEMERIS_TYPE = 0
CLASSIFICATION_TYPE = U
NORAD_CAT_ID   = 270327
ELEMENT_SET_NO = 999
REV_AT_EPOCH   = 23881
BSTAR          = .11870314E-2
MEAN_MOTION_DOT = .344E-5
MEAN_MOTION_DDOT = 0

CCSDS_OMM_VERS = 2.0
CREATION_DATE  = 
ORIGINATOR     = 

OBJECT_NAME    = UNKNOWN
OBJECT_ID      = 
CENTER_NAME    = EARTH
REF_FRAME      = TEME
TIME_SYSTEM    = UTC
MEAN_ELEMENT_THEORY = SGP/SGP4

EPOCH          = 2025-11-19T00:57:56.306592
MEAN_MOTION    = 12.95103114
ECCENTRICITY   = .01792161
INCLINATION    = 63.4586
RA_OF_ASC_NODE = 86.2382
ARG_OF_PERICENTER = 5.0252
MEAN_ANOMALY   = 355.2496

EPHEMERIS_TYPE = 0
CLASSIFICATION_TYPE = U
NORAD_CAT_ID   = 270328
ELEMENT_SET_NO = 999
REV_AT_EPOCH   = 25955
BSTAR          = .13924086E-2
MEAN_MOTION_DOT = .343E-5
MEAN_MOTION_DDOT = 0

CCSDS_OMM_VERS = 2.0
CREATION_DATE  = 
ORIGINATOR     = 

OBJECT_NAME    = UNKNOWN
OBJECT_ID      = 
CENTER_NAME    = EARTH
REF_FRAME      = TEME
TIME_SYSTEM    = UTC
MEAN_ELEMENT_THEORY = SGP/SGP4

EPOCH          = 2025-11-19T21:00:37.840608
MEAN_MOTION    = 14.36944212
ECCENTRICITY   = .00024284
INCLINATION    = 86.3985
RA_OF_ASC_NODE = 16.6952
ARG_OF_PERICENTER = 98.3525
MEAN_ANOMALY   = 261.7948

EPHEMERIS_TYPE = 0
CLASSIFICATION_TYPE = U
NORAD_CAT_ID   = 270329
ELEMENT_SET_NO = 999
REV_AT_EPOCH   = 25166
BSTAR          = .21248317E-3
MEAN_MOTION_DOT = .648E-5
MEAN_MOTION_DDOT = 0

CCSDS_OMM_VERS = 2.0
CREATION_DATE  = 
ORIGINATOR     = 

OBJECT_NAME    = UNKNOWN
OBJECT_ID      = 
CENTER_NAME    = EARTH
REF_FRAME      = TEME
TIME_SYSTEM    = UTC
MEAN_ELEMENT_THEORY = SGP/SGP4

EPOCH          = 2025-11-19T11:16:46.716096
MEAN_MOTION    = 13.41774625
ECCENTRICITY   = .00410955
INCLINATION    = 100.3049
RA_OF_ASC_NODE = 136.7139
ARG_OF_PERICENTER = 357.4024
MEAN_ANOMALY   = 2.6884

EPHEMERIS_TYPE = 0
CLASSIFICATION_TYPE = U
NORAD_CAT_ID   = 270330
ELEMENT_SET_NO = 999
REV_AT_EPOCH   = 24435
BSTAR          = .3372593E-2
MEAN_MOTION_DOT = .185E-4
MEAN_MOTION_DDOT = 0

CCSDS_OMM_VERS = 2.0
CREATION_DATE  = 
ORIGINATOR     = 

OBJECT_NAME    = UNKNOWN
OBJECT_ID      = 
CENTER_NAME    = EARTH
REF_FRAME      = TEME
TIME_SYSTEM    = UTC
MEAN_ELEMENT_THEORY = SGP/SGP4

EPOCH          = 2025-11-18T03:28:13.370880
MEAN_MOTION    = 14.27966233
ECCENTRICITY   = .02097816
INCLINATION    = 97.7201
RA_OF_ASC_NODE = 98.0057
ARG_OF_PERICENTER = 350.5233
MEAN_ANOMALY   = 9.2019

EPHEMERIS_TYPE = 0
CLASSIFICATION_TYPE = U
NORAD_CAT_ID   = 270333
ELEMENT_SET_NO = 999
REV_AT_EPOCH   = 4410
BSTAR          = .15214386E-2
MEAN_MOTION_DOT = .4733E-4
MEAN_MOTION_DDOT = 0

CCSDS_OMM_VERS = 2.0
CREATION_DATE  = 
ORIGINATOR     = 

OBJECT_NAME    = UNKNOWN
OBJECT_ID      = 
CENTER_NAME    = EARTH
REF_FRAME      = TEME
TIME_SYSTEM    = UTC
MEAN_ELEMENT_THEORY = SGP/SGP4

EPOCH          = 2025-11-09T06:42:21.136320
MEAN_MOTION    = 14.13905719
ECCENTRICITY   = .01832657
INCLINATION    = 86.4565
RA_OF_ASC_NODE = 311.2079
ARG_OF_PERICENTER = 293.1389
MEAN_ANOMALY   = 65.0576

EPHEMERIS_TYPE = 0
CLASSIFICATION_TYPE = U
NORAD_CAT_ID   = 270334
ELEMENT_SET_NO = 999
REV_AT_EPOCH   = 27692
BSTAR          = .57140189E-2
MEAN_MOTION_DOT = .1275E-3
MEAN_MOTION_DDOT = 0

CCSDS_OMM_VERS = 2.0
CREATION_DATE  = 
ORIGINATOR     = 

OBJECT_NAME    = UNKNOWN
OBJECT_ID      = 
CENTER_NAME    = EARTH
REF_FRAME      = TEME
TIME_SYSTEM    = UTC
MEAN_ELEMENT_THEORY = SGP/SGP4

EPOCH          = 2025-11-19T13:53:31.941888
MEAN_MOTION    = 14.14522815
ECCENTRICITY   = .00713674
INCLINATION    = 66.6609
RA_OF_ASC_NODE = 262.2159
ARG_OF_PERICENTER = 84.9911
MEAN_ANOMALY   = 275.9321

EPHEMERIS_TYPE = 0
CLASSIFICATION_TYPE = U
NORAD_CAT_ID   = 270335
ELEMENT_SET_NO = 999
REV_AT_EPOCH   = 23389
BSTAR          = .51967917E-3
MEAN_MOTION_DOT = .941E-5
MEAN_MOTION_DDOT = 0

CCSDS_OMM_VERS = 2.0
CREATION_DATE  = 
ORIGINATOR     = 

OBJECT_NAME    = UNKNOWN
OBJECT_ID      = 
CENTER_NAME    = EARTH
REF_FRAME      = TEME
TIME_SYSTEM    = UTC
MEAN_ELEMENT_THEORY = SGP/SGP4

EPOCH          = 2025-11-19T22:51:27.611424
MEAN_MOTION    = 14.25503749
ECCENTRICITY   = .001142
INCLINATION    = 81.2873
RA_OF_ASC_NODE = 210.3883
ARG_OF_PERICENTER = 6.0386
MEAN_ANOMALY   = 354.0929

EPHEMERIS_TYPE = 0
CLASSIFICATION_TYPE = U
NORAD_CAT_ID   = 270336
ELEMENT_SET_NO = 999
REV_AT_EPOCH   = 23220
BSTAR          = .13113311E-2
MEAN_MOTION_DOT = .3113E-4
MEAN_MOTION_DDOT = 0

CCSDS_OMM_VERS = 2.0
CREATION_DATE  = 
ORIGINATOR     = 

OBJECT_NAME    = UNKNOWN
OBJECT_ID      = 
CENTER_NAME    = EARTH
REF_FRAME      = TEME
TIME_SYSTEM    = UTC
MEAN_ELEMENT_THEORY = SGP/SGP4

EPOCH          = 2025-10-26T21:01:17.197536
MEAN_MOTION    = 13.04521446
ECCENTRICITY   = .00287021
INCLINATION    = 90.1365
RA_OF_ASC_NODE = 4.3930
ARG_OF_PERICENTER = 16.3785
MEAN_ANOMALY   = 343.8261

EPHEMERIS_TYPE = 0
CLASSIFICATION_TYPE = U
NORAD_CAT_ID   = 270337
ELEMENT_SET_NO = 999
REV_AT_EPOCH   = 21191
BSTAR          = .39768774E-2
MEAN_MOTION_DOT = .1286E-4
MEAN_MOTION_DDOT = 0

CCSDS_OMM_VERS = 2.0
CREATION_DATE  = 
ORIGINATOR     = 

OBJECT_NAME    = UNKNOWN
OBJECT_ID      = 
CENTER_NAME    = EARTH
REF_FRAME      = TEME
TIME_SYSTEM    = UTC
MEAN_ELEMENT_THEORY = SGP/SGP4

EPOCH          = 2025-11-15T03:57:10.801440
MEAN_MOTION    = 13.84025289
ECCENTRICITY   = .01461089
INCLINATION    = 99.0885
RA_OF_ASC_NODE = 277.5875
ARG_OF_PERICENTER = 248.1117
MEAN_ANOMALY   = 110.4448

EPHEMERIS_TYPE = 0
CLASSIFICATION_TYPE = U
NORAD_CAT_ID   = 270338
ELEMENT_SET_NO = 999
REV_AT_EPOCH   = 22328
BSTAR          = .12681163E-2
MEAN_MOTION_DOT = .1488E-4
MEAN_MOTION_DDOT = 0

CCSDS_OMM_VERS = 2.0
CREATION_DATE  = 
ORIGINATOR     = 

OBJECT_NAME    = UNKNOWN
OBJECT_ID      = 
CENTER_NAME    = EARTH
REF_FRAME      = TEME
TIME_SYSTEM    = UTC
MEAN_ELEMENT_THEORY = SGP/SGP4

EPOCH          = 2025-11-16T05:25:48.393984
MEAN_MOTION    = 12.16141245
ECCENTRICITY   = .08550373
INCLINATION    = 83.2293
RA_OF_ASC_NODE = 294.4577
ARG_OF_PERICENTER = 323.7255
MEAN_ANOMALY   = 30.8625

EPHEMERIS_TYPE = 0
CLASSIFICATION_TYPE = U
NORAD_CAT_ID   = 270339
ELEMENT_SET_NO = 999
REV_AT_EPOCH   = 19902
BSTAR          = .49435874E-2
MEAN_MOTION_DOT = .1547E-4
MEAN_MOTION_DDOT = 0

CCSDS_OMM_VERS = 2.0
CREATION_DATE  = 
ORIGINATOR     = 

OBJECT_NAME    = UNKNOWN
OBJECT_ID      = 
CENTER_NAME    = EARTH
REF_FRAME      = TEME
TIME_SYSTEM    = UTC
MEAN_ELEMENT_THEORY = SGP/SGP4

EPOCH          = 2025-11-19T22:56:14.638272
MEAN_MOTION    = 13.83740481
ECCENTRICITY   = .01450086
INCLINATION    = 98.8146
RA_OF_ASC_NODE = 202.8261
ARG_OF_PERICENTER = 186.5163
MEAN_ANOMALY   = 173.4110

EPHEMERIS_TYPE = 0
CLASSIFICATION_TYPE = U
NORAD_CAT_ID   = 270340
ELEMENT_SET_NO = 999
REV_AT_EPOCH   = 22459
BSTAR          = .68108514E-3
MEAN_MOTION_DOT = .777E-5
MEAN_MOTION_DDOT = 0

CCSDS_OMM_VERS = 2.0
CREATION_DATE  = 
ORIGINATOR     = 

OBJECT_NAME    = UNKNOWN
OBJECT_ID      = 
CENTER_NAME    = EARTH
REF_FRAME      = TEME
TIME_SYSTEM    = UTC
MEAN_ELEMENT_THEORY = SGP/SGP4

EPOCH          = 2025-11-02T12:15:25.972128
MEAN_MOTION    = 12.01773243
ECCENTRICITY   = .0905533
INCLINATION    = 83.2250
RA_OF_ASC_NODE = 313.6560
ARG_OF_PERICENTER = 148.4170
MEAN_ANOMALY   = 217.4667

EPHEMERIS_TYPE = 0
CLASSIFICATION_TYPE = U
NORAD_CAT_ID   = 270341
ELEMENT_SET_NO = 999
REV_AT_EPOCH   = 18488
BSTAR          = -.31220904E-2
MEAN_MOTION_DOT = -.853E-5
MEAN_MOTION_DDOT = 0

CCSDS_OMM_VERS = 2.0
CREATION_DATE  = 
ORIGINATOR     = 

OBJECT_NAME    = UNKNOWN
OBJECT_ID      = 
CENTER_NAME    = EARTH
REF_FRAME      = TEME
TIME_SYSTEM    = UTC
MEAN_ELEMENT_THEORY = SGP/SGP4

EPOCH          = 2025-11-13T04:41:43.547424
MEAN_MOTION    = 14.20254239
ECCENTRICITY   = .0104392
INCLINATION    = 98.6795
RA_OF_ASC_NODE = 224.0241
ARG_OF_PERICENTER = 6.7089
MEAN_ANOMALY   = 353.5457

EPHEMERIS_TYPE = 0
CLASSIFICATION_TYPE = U
NORAD_CAT_ID   = 270342
ELEMENT_SET_NO = 999
REV_AT_EPOCH   = 21839
BSTAR          = .90650656E-2
MEAN_MOTION_DOT = .20477E-3
MEAN_MOTION_DDOT = 0

CCSDS_OMM_VERS = 2.0
CREATION_DATE  = 
ORIGINATOR     = 

OBJECT_NAME    = UNKNOWN
OBJECT_ID      = 
CENTER_NAME    = EARTH
REF_FRAME      = TEME
TIME_SYSTEM    = UTC
MEAN_ELEMENT_THEORY = SGP/SGP4

EPOCH          = 2025-11-14T12:17:40.975584
MEAN_MOTION    = 13.06529250
ECCENTRICITY   = .02685296
INCLINATION    = 105.8415
RA_OF_ASC_NODE = 47.7115
ARG_OF_PERICENTER = 159.6863
MEAN_ANOMALY   = 201.5144

EPHEMERIS_TYPE = 0
CLASSIFICATION_TYPE = U
NORAD_CAT_ID   = 270344
ELEMENT_SET_NO = 999
REV_AT_EPOCH   = 19840
BSTAR          = .26805962E-3
MEAN_MOTION_DOT = .25E-6
MEAN_MOTION_DDOT = 0

